OBJECT C                
1 57582U 23117C   24331.13204302  .00017047  00000+0  77600-3 0  9990
2 57582  97.4708  41.3166 0011107  90.6434 269.6074 15.20712932 71757
